{"\u81fa\u5317\u5e02":[{"town":"\u4e2d\u6b63\u5340","postcode":"100","location":"25.03240487,121.5198839"},{"town":"\u5927\u540c\u5340","postcode":"103","location":"25.06342433,121.5130417"},{"town":"\u4e2d\u5c71\u5340","postcode":"104","location":"25.06969917,121.5381597"},{"town":"\u677e\u5c71\u5340","postcode":"105","location":"25.05999101,121.5575876"},{"town":"\u5927\u5b89\u5340","postcode":"106","location":"25.02677012,121.5434446"},{"town":"\u842c\u83ef\u5340","postcode":"108","location":"25.0285899,121.4979858"},{"town":"\u4fe1\u7fa9\u5340","postcode":"110","location":"25.03062083,121.5716697"},{"town":"\u58eb\u6797\u5340","postcode":"111","location":"25.12546704,121.5508473"},{"town":"\u5317\u6295\u5340","postcode":"112","location":"25.1480682,121.5177992"},{"town":"\u5167\u6e56\u5340","postcode":"114","location":"25.08370623,121.5923828"},{"town":"\u5357\u6e2f\u5340","postcode":"115","location":"25.03600934,121.6097573"},{"town":"\u6587\u5c71\u5340","postcode":"116","location":"24.98857934,121.5736082"}],"\u57fa\u9686\u5e02":[{"town":"\u4ec1\u611b\u5340","postcode":"200","location":"25.11945421,121.7434205"},{"town":"\u4fe1\u7fa9\u5340","postcode":"201","location":"25.12576579,121.772646"},{"town":"\u4e2d\u6b63\u5340","postcode":"202","location":"25.14365754,121.7783549"},{"town":"\u4e2d\u5c71\u5340","postcode":"203","location":"25.14986365,121.7308913"},{"town":"\u5b89\u6a02\u5340","postcode":"204","location":"25.14139521,121.7078325"},{"town":"\u6696\u6696\u5340","postcode":"205","location":"25.08097003,121.7447344"},{"town":"\u4e03\u5835\u5340","postcode":"206","location":"25.10962028,121.683628"}],"\u65b0\u5317\u5e02":[{"town":"\u842c\u91cc\u5340","postcode":"207","location":"25.17572457,121.6439307"},{"town":"\u91d1\u5c71\u5340","postcode":"208","location":"25.21714594,121.6052639"},{"town":"\u677f\u6a4b\u5340","postcode":"220","location":"25.01186453,121.4579675"},{"town":"\u6c50\u6b62\u5340","postcode":"221","location":"25.07331322,121.6546992"},{"town":"\u6df1\u5751\u5340","postcode":"222","location":"24.99767506,121.6200624"},{"town":"\u77f3\u7887\u5340","postcode":"223","location":"24.94714107,121.6472277"},{"town":"\u745e\u82b3\u5340","postcode":"224","location":"25.0981293,121.8232018"},{"town":"\u5e73\u6eaa\u5340","postcode":"226","location":"25.02607068,121.7578817"},{"town":"\u96d9\u6eaa\u5340","postcode":"227","location":"24.99698394,121.8329822"},{"town":"\u8ca2\u5bee\u5340","postcode":"228","location":"25.02485641,121.9182466"},{"town":"\u65b0\u5e97\u5340","postcode":"231","location":"24.93039008,121.5316565"},{"town":"\u576a\u6797\u5340","postcode":"232","location":"24.91097073,121.724223"},{"town":"\u70cf\u4f86\u5340","postcode":"233","location":"24.78824295,121.5414806"},{"town":"\u6c38\u548c\u5340","postcode":"234","location":"25.00810199,121.516745"},{"town":"\u4e2d\u548c\u5340","postcode":"235","location":"24.99088039,121.4936744"},{"town":"\u571f\u57ce\u5340","postcode":"236","location":"24.96425102,121.445737"},{"town":"\u4e09\u5cfd\u5340","postcode":"237","location":"24.88209766,121.4163094"},{"town":"\u6a39\u6797\u5340","postcode":"238","location":"24.97970609,121.401034"},{"town":"\u9daf\u6b4c\u5340","postcode":"239","location":"24.9566258,121.3466269"},{"town":"\u4e09\u91cd\u5340","postcode":"241","location":"25.06281651,121.4870977"},{"town":"\u65b0\u838a\u5340","postcode":"242","location":"25.0358303,121.4367535"},{"town":"\u6cf0\u5c71\u5340","postcode":"243","location":"25.05549774,121.4162785"},{"town":"\u6797\u53e3\u5340","postcode":"244","location":"25.1000868,121.3527235"},{"town":"\u8606\u6d32\u5340","postcode":"247","location":"25.08927173,121.4712461"},{"town":"\u4e94\u80a1\u5340","postcode":"248","location":"25.09614746,121.4332139"},{"town":"\u516b\u91cc\u5340","postcode":"249","location":"25.13812763,121.4138359"},{"town":"\u6de1\u6c34\u5340","postcode":"251","location":"25.18907636,121.463904"},{"town":"\u4e09\u829d\u5340","postcode":"252","location":"25.23159891,121.515558"},{"town":"\u77f3\u9580\u5340","postcode":"253","location":"25.26518079,121.5692761"}],"\u9023\u6c5f\u7e23":[{"town":"\u5357\u7aff\u9109","postcode":"209","location":"26.154321,119.931128"},{"town":"\u5317\u7aff\u9109","postcode":"210","location":"26.225637,119.994251"},{"town":"\u8392\u5149\u9109","postcode":"211","location":"25.97298,119.938877"},{"town":"\u6771\u5f15\u9109","postcode":"212","location":"26.366101,120.4903"}],"\u5b9c\u862d\u7e23":[{"town":"\u5b9c\u862d\u5e02","postcode":"260","location":"24.75021184,121.7569358"},{"town":"\u982d\u57ce\u93ae","postcode":"261","location":"24.90075882,121.845797"},{"town":"\u7901\u6eaa\u9109","postcode":"262","location":"24.81144192,121.7346606"},{"town":"\u58ef\u570d\u9109","postcode":"263","location":"24.75183042,121.8017622"},{"town":"\u54e1\u5c71\u9109","postcode":"264","location":"24.74199237,121.6612282"},{"town":"\u7f85\u6771\u93ae","postcode":"265","location":"24.67884824,121.7701782"},{"town":"\u4e09\u661f\u9109","postcode":"266","location":"24.66771972,121.6642714"},{"town":"\u5927\u540c\u9109","postcode":"267","location":"24.55152082,121.5040369"},{"town":"\u4e94\u7d50\u9109","postcode":"268","location":"24.68887343,121.8058342"},{"town":"\u51ac\u5c71\u9109","postcode":"269","location":"24.64214986,121.760255"},{"town":"\u8607\u6fb3\u93ae","postcode":"270","location":"24.55467058,121.8346892"},{"town":"\u5357\u6fb3\u9109","postcode":"272","location":"24.44864058,121.6560593"},{"town":"\u91e3\u9b5a\u81fa\u5217\u5dbc","postcode":"290","location":"25.746396,123.475482"}],"\u65b0\u7af9\u5e02":[{"town":"\u5317\u5340","postcode":"300","location":"24.82269542,120.9491233"},{"town":"\u6771\u5340","postcode":"300","location":"24.79028174,120.9927505"},{"town":"\u9999\u5c71\u5340","postcode":"300","location":"24.77104342,120.9236727"}],"\u65b0\u7af9\u7e23":[{"town":"\u7af9\u5317\u5e02","postcode":"302","location":"24.83816209,120.9948704"},{"town":"\u6e56\u53e3\u9109","postcode":"303","location":"24.88566341,121.0517242"},{"town":"\u65b0\u8c50\u9109","postcode":"304","location":"24.90731298,120.9956033"},{"town":"\u65b0\u57d4\u93ae","postcode":"305","location":"24.84133959,121.0939886"},{"town":"\u95dc\u897f\u93ae","postcode":"306","location":"24.78514681,121.1866221"},{"town":"\u828e\u6797\u9109","postcode":"307","location":"24.7657116,121.1046394"},{"town":"\u5bf6\u5c71\u9109","postcode":"308","location":"24.73697351,120.9991605"},{"town":"\u7af9\u6771\u93ae","postcode":"310","location":"24.73075802,121.0753632"},{"town":"\u4e94\u5cf0\u9109","postcode":"311","location":"24.578054,121.1389495"},{"town":"\u6a6b\u5c71\u9109","postcode":"312","location":"24.7078092,121.1469732"},{"town":"\u5c16\u77f3\u9109","postcode":"313","location":"24.59493235,121.2819341"},{"town":"\u5317\u57d4\u9109","postcode":"314","location":"24.67207405,121.0642745"},{"town":"\u5ce8\u7709\u9109","postcode":"315","location":"24.67811197,121.0110809"}],"\u6843\u5712\u5e02":[{"town":"\u4e2d\u58e2\u5340","postcode":"320","location":"24.97993803,121.2147243"},{"town":"\u5e73\u93ae\u5340","postcode":"324","location":"24.92117923,121.2140051"},{"town":"\u9f8d\u6f6d\u5340","postcode":"325","location":"24.85064954,121.2117877"},{"town":"\u694a\u6885\u5340","postcode":"326","location":"24.91820989,121.1291697"},{"town":"\u65b0\u5c4b\u5340","postcode":"327","location":"24.97280352,121.067758"},{"town":"\u89c0\u97f3\u5340","postcode":"328","location":"25.02671611,121.1155021"},{"town":"\u6843\u5712\u5340","postcode":"330","location":"25.00040024,121.2996612"},{"town":"\u9f9c\u5c71\u5340","postcode":"333","location":"25.02417472,121.3569265"},{"town":"\u516b\u5fb7\u5340","postcode":"334","location":"24.94968903,121.2913102"},{"town":"\u5927\u6eaa\u5340","postcode":"335","location":"24.86797026,121.296342"},{"town":"\u5fa9\u8208\u5340","postcode":"336","location":"24.72949884,121.3754588"},{"town":"\u5927\u5712\u5340","postcode":"337","location":"25.06384709,121.21177"},{"town":"\u8606\u7af9\u5340","postcode":"338","location":"25.06073337,121.2831266"}],"\u82d7\u6817\u7e23":[{"town":"\u7af9\u5357\u93ae","postcode":"350","location":"24.69862459,120.8777316"},{"town":"\u982d\u4efd\u5e02","postcode":"351","location":"24.67628243,120.9189437"},{"town":"\u4e09\u7063\u9109","postcode":"352","location":"24.63599405,120.9525745"},{"town":"\u5357\u5e84\u9109","postcode":"353","location":"24.56608432,121.017471"},{"town":"\u7345\u6f6d\u9109","postcode":"354","location":"24.51978614,120.9206688"},{"town":"\u5f8c\u9f8d\u93ae","postcode":"356","location":"24.6156265,120.781205"},{"town":"\u901a\u9704\u93ae","postcode":"357","location":"24.4850464,120.7146378"},{"town":"\u82d1\u88e1\u93ae","postcode":"358","location":"24.4110232,120.6882195"},{"town":"\u82d7\u6817\u5e02","postcode":"360","location":"24.56382141,120.8112299"},{"town":"\u9020\u6a4b\u9109","postcode":"361","location":"24.62481314,120.8695663"},{"town":"\u982d\u5c4b\u9109","postcode":"362","location":"24.57345497,120.8826631"},{"town":"\u516c\u9928\u9109","postcode":"363","location":"24.50249686,120.8505904"},{"town":"\u5927\u6e56\u9109","postcode":"364","location":"24.39359641,120.8631192"},{"town":"\u6cf0\u5b89\u9109","postcode":"365","location":"24.41925819,121.0681571"},{"town":"\u9285\u947c\u9109","postcode":"366","location":"24.45591832,120.7992043"},{"town":"\u4e09\u7fa9\u9109","postcode":"367","location":"24.38081659,120.7701929"},{"town":"\u897f\u6e56\u9109","postcode":"368","location":"24.54153218,120.7614144"},{"town":"\u5353\u862d\u93ae","postcode":"369","location":"24.32510167,120.8561966"}],"\u81fa\u4e2d\u5e02":[{"town":"\u4e2d\u5340","postcode":"400","location":"24.14168566,120.680598"},{"town":"\u6771\u5340","postcode":"401","location":"24.13733209,120.6970865"},{"town":"\u5357\u5340","postcode":"402","location":"24.12114107,120.6646178"},{"town":"\u897f\u5340","postcode":"403","location":"24.14391082,120.6647579"},{"town":"\u5317\u5340","postcode":"404","location":"24.15863985,120.6809521"},{"town":"\u5317\u5c6f\u5340","postcode":"406","location":"24.18400298,120.7362319"},{"town":"\u897f\u5c6f\u5340","postcode":"407","location":"24.18308895,120.6270131"},{"town":"\u5357\u5c6f\u5340","postcode":"408","location":"24.14165524,120.6177379"},{"town":"\u592a\u5e73\u5340","postcode":"411","location":"24.11477375,120.7734217"},{"town":"\u5927\u91cc\u5340","postcode":"412","location":"24.09575742,120.6926261"},{"town":"\u9727\u5cf0\u5340","postcode":"413","location":"24.04332785,120.7201989"},{"town":"\u70cf\u65e5\u5340","postcode":"414","location":"24.0839271,120.6293305"},{"town":"\u8c50\u539f\u5340","postcode":"420","location":"24.24990298,120.7375715"},{"town":"\u540e\u91cc\u5340","postcode":"421","location":"24.30962483,120.7146127"},{"town":"\u77f3\u5ca1\u5340","postcode":"422","location":"24.26493299,120.7903822"},{"town":"\u6771\u52e2\u5340","postcode":"423","location":"24.24952637,120.8401401"},{"town":"\u548c\u5e73\u5340","postcode":"424","location":"24.27620277,121.140185"},{"town":"\u65b0\u793e\u5340","postcode":"426","location":"24.17769289,120.8313228"},{"town":"\u6f6d\u5b50\u5340","postcode":"427","location":"24.21171121,120.710997"},{"town":"\u5927\u96c5\u5340","postcode":"428","location":"24.22704181,120.6411818"},{"town":"\u795e\u5ca1\u5340","postcode":"429","location":"24.26568008,120.6733321"},{"town":"\u5927\u809a\u5340","postcode":"432","location":"24.14467504,120.5543243"},{"town":"\u6c99\u9e7f\u5340","postcode":"433","location":"24.23425212,120.5838628"},{"town":"\u9f8d\u4e95\u5340","postcode":"434","location":"24.20062892,120.5283728"},{"town":"\u68a7\u68f2\u5340","postcode":"435","location":"24.24552431,120.5301259"},{"town":"\u6e05\u6c34\u5340","postcode":"436","location":"24.29205743,120.5809094"},{"town":"\u5927\u7532\u5340","postcode":"437","location":"24.37827161,120.6357901"},{"town":"\u5916\u57d4\u5340","postcode":"438","location":"24.33551071,120.6650639"},{"town":"\u5927\u5b89\u5340","postcode":"439","location":"24.36509555,120.5914407"}],"\u5f70\u5316\u7e23":[{"town":"\u5f70\u5316\u5e02","postcode":"500","location":"24.07532909,120.5694208"},{"town":"\u82ac\u5712\u9109","postcode":"502","location":"24.00628794,120.6294414"},{"town":"\u82b1\u58c7\u9109","postcode":"503","location":"24.03006875,120.5597655"},{"town":"\u79c0\u6c34\u9109","postcode":"504","location":"24.03249405,120.5041184"},{"town":"\u9e7f\u6e2f\u93ae","postcode":"505","location":"24.08286685,120.4385491"},{"town":"\u798f\u8208\u9109","postcode":"506","location":"24.03021674,120.4310511"},{"town":"\u7dda\u897f\u9109","postcode":"507","location":"24.13158127,120.452157"},{"town":"\u548c\u7f8e\u93ae","postcode":"508","location":"24.11379535,120.5112045"},{"town":"\u4f38\u6e2f\u9109","postcode":"509","location":"24.16367107,120.486449"},{"town":"\u54e1\u6797\u5e02","postcode":"510","location":"23.95650448,120.593073"},{"town":"\u793e\u982d\u9109","postcode":"511","location":"23.90536413,120.6021661"},{"town":"\u6c38\u9756\u9109","postcode":"512","location":"23.92139507,120.5416032"},{"town":"\u57d4\u5fc3\u9109","postcode":"513","location":"23.95277521,120.5342802"},{"town":"\u6eaa\u6e56\u93ae","postcode":"514","location":"23.95171456,120.4831739"},{"town":"\u5927\u6751\u9109","postcode":"515","location":"23.99209206,120.5586866"},{"town":"\u57d4\u9e7d\u9109","postcode":"516","location":"23.99204417,120.4594626"},{"town":"\u7530\u4e2d\u93ae","postcode":"520","location":"23.85723872,120.5903471"},{"town":"\u5317\u6597\u93ae","postcode":"521","location":"23.867574,120.5331566"},{"town":"\u7530\u5c3e\u9109","postcode":"522","location":"23.90056065,120.5223244"},{"town":"\u57e4\u982d\u9109","postcode":"523","location":"23.88234118,120.4675642"},{"town":"\u6eaa\u5dde\u9109","postcode":"524","location":"23.82725185,120.5224904"},{"town":"\u7af9\u5858\u9109","postcode":"525","location":"23.8505872,120.4136645"},{"town":"\u4e8c\u6797\u93ae","postcode":"526","location":"23.91621405,120.404225"},{"town":"\u5927\u57ce\u9109","postcode":"527","location":"23.85069276,120.3113284"},{"town":"\u82b3\u82d1\u9109","postcode":"528","location":"23.9537906,120.3539226"},{"town":"\u4e8c\u6c34\u9109","postcode":"530","location":"23.8092402,120.628589"}],"\u5357\u6295\u7e23":[{"town":"\u5357\u6295\u5e02","postcode":"540","location":"23.92173537,120.6787658"},{"town":"\u4e2d\u5bee\u9109","postcode":"541","location":"23.90589214,120.7859159"},{"town":"\u8349\u5c6f\u93ae","postcode":"542","location":"23.98321081,120.7326182"},{"town":"\u570b\u59d3\u9109","postcode":"544","location":"24.03135413,120.8676052"},{"town":"\u57d4\u91cc\u93ae","postcode":"545","location":"23.97892591,120.9625259"},{"town":"\u4ec1\u611b\u9109","postcode":"546","location":"24.02886513,121.1443879"},{"town":"\u540d\u9593\u9109","postcode":"551","location":"23.8510771,120.6774402"},{"town":"\u96c6\u96c6\u93ae","postcode":"552","location":"23.83701687,120.7854192"},{"town":"\u6c34\u91cc\u9109","postcode":"553","location":"23.79612907,120.8622721"},{"town":"\u9b5a\u6c60\u9109","postcode":"555","location":"23.87601213,120.9256736"},{"town":"\u4fe1\u7fa9\u9109","postcode":"556","location":"23.6554647,121.0212867"},{"town":"\u7af9\u5c71\u93ae","postcode":"557","location":"23.69805518,120.7100797"},{"town":"\u9e7f\u8c37\u9109","postcode":"558","location":"23.73776029,120.7815065"}],"\u5609\u7fa9\u5e02":[{"town":"\u897f\u5340","postcode":"600","location":"23.47915529,120.4248724"},{"town":"\u6771\u5340","postcode":"600","location":"23.48170334,120.4706244"}],"\u5609\u7fa9\u7e23":[{"town":"\u756a\u8def\u9109","postcode":"602","location":"23.42765669,120.6075335"},{"town":"\u6885\u5c71\u9109","postcode":"603","location":"23.55535465,120.6387459"},{"town":"\u7af9\u5d0e\u9109","postcode":"604","location":"23.50376527,120.5965771"},{"town":"\u963f\u91cc\u5c71\u9109","postcode":"605","location":"23.44077619,120.7596173"},{"town":"\u4e2d\u57d4\u9109","postcode":"606","location":"23.40408998,120.5365312"},{"town":"\u5927\u57d4\u9109","postcode":"607","location":"23.28848426,120.5896466"},{"town":"\u6c34\u4e0a\u9109","postcode":"608","location":"23.42911287,120.4147357"},{"town":"\u9e7f\u8349\u9109","postcode":"611","location":"23.40811736,120.3045468"},{"town":"\u592a\u4fdd\u5e02","postcode":"612","location":"23.4729191,120.3440009"},{"town":"\u6734\u5b50\u5e02","postcode":"613","location":"23.44610605,120.2538977"},{"town":"\u6771\u77f3\u9109","postcode":"614","location":"23.46866059,120.1738682"},{"town":"\u516d\u8173\u9109","postcode":"615","location":"23.51020984,120.2714728"},{"town":"\u65b0\u6e2f\u9109","postcode":"616","location":"23.54581295,120.3482873"},{"town":"\u6c11\u96c4\u9109","postcode":"621","location":"23.54255347,120.4442798"},{"town":"\u5927\u6797\u93ae","postcode":"622","location":"23.59890827,120.4807865"},{"town":"\u6eaa\u53e3\u9109","postcode":"623","location":"23.59353089,120.4010282"},{"town":"\u7fa9\u7af9\u9109","postcode":"624","location":"23.34575872,120.2239433"},{"town":"\u5e03\u888b\u93ae","postcode":"625","location":"23.37494276,120.1777498"}],"\u96f2\u6797\u7e23":[{"town":"\u6597\u5357\u93ae","postcode":"630","location":"23.67066393,120.4826356"},{"town":"\u5927\u57e4\u9109","postcode":"631","location":"23.6455971,120.4255592"},{"town":"\u864e\u5c3e\u93ae","postcode":"632","location":"23.71661545,120.4293061"},{"town":"\u571f\u5eab\u93ae","postcode":"633","location":"23.69110665,120.3647252"},{"town":"\u8912\u5fe0\u9109","postcode":"634","location":"23.71613204,120.3116122"},{"town":"\u6771\u52e2\u9109","postcode":"635","location":"23.69612324,120.2564173"},{"town":"\u81fa\u897f\u9109","postcode":"636","location":"23.71600815,120.2054952"},{"town":"\u5d19\u80cc\u9109","postcode":"637","location":"23.77849791,120.3339769"},{"town":"\u9ea5\u5bee\u9109","postcode":"638","location":"23.78817056,120.243533"},{"town":"\u6597\u516d\u5e02","postcode":"640","location":"23.70651883,120.5600044"},{"town":"\u6797\u5167\u9109","postcode":"643","location":"23.7557209,120.6155018"},{"town":"\u53e4\u5751\u9109","postcode":"646","location":"23.62545469,120.6117351"},{"town":"\u83bf\u6850\u9109","postcode":"647","location":"23.76973894,120.5290419"},{"town":"\u897f\u87ba\u93ae","postcode":"648","location":"23.77942109,120.4580795"},{"town":"\u4e8c\u5d19\u9109","postcode":"649","location":"23.7925521,120.3964598"},{"town":"\u5317\u6e2f\u93ae","postcode":"651","location":"23.59219528,120.2940164"},{"town":"\u6c34\u6797\u9109","postcode":"652","location":"23.56162849,120.2352734"},{"town":"\u53e3\u6e56\u9109","postcode":"653","location":"23.55365395,120.1413711"},{"town":"\u56db\u6e56\u9109","postcode":"654","location":"23.64206875,120.2064699"},{"town":"\u5143\u9577\u9109","postcode":"655","location":"23.64243095,120.3279617"}],"\u81fa\u5357\u5e02":[{"town":"\u4e2d\u897f\u5340","postcode":"700","location":"22.99594458,120.192874"},{"town":"\u6771\u5340","postcode":"701","location":"22.98178202,120.2281858"},{"town":"\u5357\u5340","postcode":"702","location":"22.95561863,120.1903743"},{"town":"\u5317\u5340","postcode":"704","location":"23.01012179,120.2068735"},{"town":"\u5b89\u5e73\u5340","postcode":"708","location":"22.99008437,120.1649949"},{"town":"\u5b89\u5357\u5340","postcode":"709","location":"23.04869681,120.1526189"},{"town":"\u6c38\u5eb7\u5340","postcode":"710","location":"23.02729532,120.2542795"},{"town":"\u6b78\u4ec1\u5340","postcode":"711","location":"22.94679469,120.2930627"},{"town":"\u65b0\u5316\u5340","postcode":"712","location":"23.03394545,120.3357964"},{"town":"\u5de6\u93ae\u5340","postcode":"713","location":"23.02604611,120.4123917"},{"town":"\u7389\u4e95\u5340","postcode":"714","location":"23.11480926,120.4609622"},{"town":"\u6960\u897f\u5340","postcode":"715","location":"23.17885854,120.5170304"},{"town":"\u5357\u5316\u5340","postcode":"716","location":"23.1151111,120.5441223"},{"town":"\u4ec1\u5fb7\u5340","postcode":"717","location":"22.94130931,120.2418788"},{"town":"\u95dc\u5edf\u5340","postcode":"718","location":"22.95577909,120.3342821"},{"town":"\u9f8d\u5d0e\u5340","postcode":"719","location":"22.95482276,120.3869373"},{"town":"\u5b98\u7530\u5340","postcode":"720","location":"23.19098548,120.3479918"},{"town":"\u9ebb\u8c46\u5340","postcode":"721","location":"23.18248033,120.241308"},{"town":"\u4f73\u91cc\u5340","postcode":"722","location":"23.1669941,120.178593"},{"town":"\u897f\u6e2f\u5340","postcode":"723","location":"23.12491893,120.2002309"},{"town":"\u4e03\u80a1\u5340","postcode":"724","location":"23.12326578,120.1005854"},{"town":"\u5c07\u8ecd\u5340","postcode":"725","location":"23.20834413,120.1276958"},{"town":"\u5b78\u7532\u5340","postcode":"726","location":"23.25219805,120.1841865"},{"town":"\u5317\u9580\u5340","postcode":"727","location":"23.2777708,120.1262357"},{"town":"\u65b0\u71df\u5340","postcode":"730","location":"23.30152488,120.2954067"},{"town":"\u5f8c\u58c1\u5340","postcode":"731","location":"23.36201478,120.3485081"},{"town":"\u767d\u6cb3\u5340","postcode":"732","location":"23.35132068,120.4578565"},{"town":"\u6771\u5c71\u5340","postcode":"733","location":"23.2783187,120.4441211"},{"town":"\u516d\u7532\u5340","postcode":"734","location":"23.2272672,120.3800259"},{"town":"\u4e0b\u71df\u5340","postcode":"735","location":"23.23103978,120.26484"},{"town":"\u67f3\u71df\u5340","postcode":"736","location":"23.26887001,120.3549205"},{"town":"\u9e7d\u6c34\u5340","postcode":"737","location":"23.29798622,120.2482977"},{"town":"\u5584\u5316\u5340","postcode":"741","location":"23.14031072,120.2988274"},{"town":"\u5927\u5167\u5340","postcode":"742","location":"23.14482152,120.3988147"},{"town":"\u5c71\u4e0a\u5340","postcode":"743","location":"23.09689329,120.370977"},{"town":"\u65b0\u5e02\u5340","postcode":"744","location":"23.08319496,120.2923941"},{"town":"\u5b89\u5b9a\u5340","postcode":"745","location":"23.09974927,120.2296235"}],"\u9ad8\u96c4\u5e02":[{"town":"\u65b0\u8208\u5340","postcode":"800","location":"22.62992906,120.3067337"},{"town":"\u524d\u91d1\u5340","postcode":"801","location":"22.6269905,120.2944217"},{"town":"\u82d3\u96c5\u5340","postcode":"802","location":"22.62359448,120.3209103"},{"town":"\u9e7d\u57d5\u5340","postcode":"803","location":"22.62424585,120.2842331"},{"town":"\u9f13\u5c71\u5340","postcode":"804","location":"22.65019525,120.274163"},{"town":"\u65d7\u6d25\u5340","postcode":"805","location":"22.58565583,120.2891539"},{"town":"\u524d\u93ae\u5340","postcode":"806","location":"22.59269724,120.3146749"},{"town":"\u4e09\u6c11\u5340","postcode":"807","location":"22.64989883,120.3179187"},{"town":"\u6960\u6893\u5340","postcode":"811","location":"22.72109961,120.300758"},{"town":"\u5c0f\u6e2f\u5340","postcode":"812","location":"22.55140207,120.3592605"},{"town":"\u5de6\u71df\u5340","postcode":"813","location":"22.68395699,120.2951588"},{"town":"\u4ec1\u6b66\u5340","postcode":"814","location":"22.70120782,120.3605265"},{"town":"\u5927\u793e\u5340","postcode":"815","location":"22.73983479,120.3707994"},{"town":"\u5ca1\u5c71\u5340","postcode":"820","location":"22.80505886,120.2978906"},{"town":"\u8def\u7af9\u5340","postcode":"821","location":"22.85724171,120.2659871"},{"town":"\u963f\u84ee\u5340","postcode":"822","location":"22.87022883,120.3210967"},{"town":"\u7530\u5bee\u5340","postcode":"823","location":"22.86394307,120.3959842"},{"town":"\u71d5\u5de2\u5340","postcode":"824","location":"22.78769626,120.370799"},{"town":"\u6a4b\u982d\u5340","postcode":"825","location":"22.75252398,120.3006534"},{"town":"\u6893\u5b98\u5340","postcode":"826","location":"22.748209,120.2593989"},{"town":"\u5f4c\u9640\u5340","postcode":"827","location":"22.77944528,120.2394571"},{"town":"\u6c38\u5b89\u5340","postcode":"828","location":"22.82224585,120.228051"},{"town":"\u6e56\u5167\u5340","postcode":"829","location":"22.89324952,120.2259375"},{"town":"\u9cf3\u5c71\u5340","postcode":"830","location":"22.61379251,120.3554359"},{"town":"\u5927\u5bee\u5340","postcode":"831","location":"22.59283576,120.4111468"},{"town":"\u6797\u5712\u5340","postcode":"832","location":"22.50813743,120.399052"},{"town":"\u9ce5\u677e\u5340","postcode":"833","location":"22.66249302,120.3727783"},{"town":"\u5927\u6a39\u5340","postcode":"840","location":"22.71100364,120.425407"},{"town":"\u65d7\u5c71\u5340","postcode":"842","location":"22.86497033,120.4754554"},{"town":"\u7f8e\u6fc3\u5340","postcode":"843","location":"22.90005529,120.5634635"},{"town":"\u516d\u9f9c\u5340","postcode":"844","location":"23.01195426,120.6585635"},{"town":"\u5167\u9580\u5340","postcode":"845","location":"22.95668817,120.4719272"},{"town":"\u6749\u6797\u5340","postcode":"846","location":"22.99694681,120.5621971"},{"town":"\u7532\u4ed9\u5340","postcode":"847","location":"23.11654995,120.6232895"},{"town":"\u6843\u6e90\u5340","postcode":"848","location":"23.2249459,120.8523383"},{"town":"\u90a3\u746a\u590f\u5340","postcode":"849","location":"23.275008,120.741944"},{"town":"\u8302\u6797\u5340","postcode":"851","location":"22.91993256,120.752384"},{"town":"\u8304\u8423\u5340","postcode":"852","location":"22.88241399,120.1980519"}],"\u6f8e\u6e56\u7e23":[{"town":"\u99ac\u516c\u5e02","postcode":"880","location":"23.55534,119.59234"},{"town":"\u897f\u5dbc\u9109","postcode":"881","location":"23.59975,119.50783"},{"town":"\u671b\u5b89\u9109","postcode":"882","location":"23.36904,119.50406"},{"town":"\u4e03\u7f8e\u9109","postcode":"883","location":"23.20108,119.43393"},{"town":"\u767d\u6c99\u9109","postcode":"884","location":"23.64178,119.59251"},{"town":"\u6e56\u897f\u9109","postcode":"885","location":"23.57364,119.64462"}],"\u91d1\u9580\u7e23":[{"town":"\u91d1\u6c99\u93ae","postcode":"890","location":"24.45865,118.40841"},{"town":"\u91d1\u6e56\u93ae","postcode":"891","location":"24.41496,118.40373"},{"town":"\u91d1\u5be7\u9109","postcode":"892","location":"24.42482,118.31705"},{"town":"\u91d1\u57ce\u93ae","postcode":"893","location":"24.38402,118.30128"},{"town":"\u70c8\u5dbc\u9109","postcode":"894","location":"24.40166,118.22789"},{"town":"\u70cf\u5775\u9109","postcode":"896","location":"24.992338,119.452738"}],"\u5c4f\u6771\u7e23":[{"town":"\u5c4f\u6771\u5e02","postcode":"900","location":"22.6647375,120.4799948"},{"town":"\u4e09\u5730\u9580\u9109","postcode":"901","location":"22.79786847,120.6865219"},{"town":"\u9727\u81fa\u9109","postcode":"902","location":"22.75990478,120.8008099"},{"town":"\u746a\u5bb6\u9109","postcode":"903","location":"22.67107764,120.6799239"},{"town":"\u4e5d\u5982\u9109","postcode":"904","location":"22.7316677,120.4845044"},{"town":"\u91cc\u6e2f\u9109","postcode":"905","location":"22.79854831,120.5061276"},{"town":"\u9ad8\u6a39\u9109","postcode":"906","location":"22.80992022,120.6017678"},{"town":"\u9e7d\u57d4\u9109","postcode":"907","location":"22.74253636,120.5693941"},{"town":"\u9577\u6cbb\u9109","postcode":"908","location":"22.69454952,120.555979"},{"town":"\u9e9f\u6d1b\u9109","postcode":"909","location":"22.64876367,120.5299693"},{"town":"\u7af9\u7530\u9109","postcode":"911","location":"22.58855636,120.5266379"},{"town":"\u5167\u57d4\u9109","postcode":"912","location":"22.65116933,120.5888222"},{"town":"\u842c\u4e39\u9109","postcode":"913","location":"22.58849547,120.4766188"},{"town":"\u6f6e\u5dde\u93ae","postcode":"920","location":"22.53642947,120.5568063"},{"town":"\u6cf0\u6b66\u9109","postcode":"921","location":"22.60408477,120.6917929"},{"town":"\u4f86\u7fa9\u9109","postcode":"922","location":"22.50157206,120.6857232"},{"town":"\u842c\u5dd2\u9109","postcode":"923","location":"22.58233459,120.601817"},{"town":"\u5d01\u9802\u9109","postcode":"924","location":"22.51528151,120.5006598"},{"town":"\u65b0\u57e4\u9109","postcode":"925","location":"22.48676279,120.5846257"},{"town":"\u5357\u5dde\u9109","postcode":"926","location":"22.47980704,120.5180561"},{"town":"\u6797\u908a\u9109","postcode":"927","location":"22.44142101,120.5125095"},{"town":"\u6771\u6e2f\u93ae","postcode":"928","location":"22.46265635,120.4751333"},{"town":"\u7409\u7403\u9109","postcode":"929","location":"22.34000278,120.3710466"},{"town":"\u4f73\u51ac\u9109","postcode":"931","location":"22.42980624,120.5476124"},{"town":"\u65b0\u5712\u9109","postcode":"932","location":"22.5171903,120.4501429"},{"town":"\u678b\u5bee\u9109","postcode":"940","location":"22.40334199,120.5975845"},{"town":"\u678b\u5c71\u9109","postcode":"941","location":"22.27086962,120.6567673"},{"town":"\u6625\u65e5\u9109","postcode":"942","location":"22.40399754,120.6975799"},{"town":"\u7345\u5b50\u9109","postcode":"943","location":"22.26084921,120.7356454"},{"town":"\u8eca\u57ce\u9109","postcode":"944","location":"22.07915617,120.7432633"},{"town":"\u7261\u4e39\u9109","postcode":"945","location":"22.15552859,120.8173609"},{"town":"\u6046\u6625\u93ae","postcode":"946","location":"21.98531645,120.7632537"},{"town":"\u6eff\u5dde\u9109","postcode":"947","location":"22.04930015,120.8435675"}],"\u81fa\u6771\u7e23":[{"town":"\u81fa\u6771\u5e02","postcode":"950","location":"22.75165721,121.1103647"},{"town":"\u7da0\u5cf6\u9109","postcode":"951","location":"22.66017537,121.4901951"},{"town":"\u862d\u5dbc\u9109","postcode":"952","location":"22.04616835,121.5508328"},{"town":"\u5ef6\u5e73\u9109","postcode":"953","location":"22.90343174,120.9831902"},{"town":"\u5351\u5357\u9109","postcode":"954","location":"22.76494453,121.0015521"},{"town":"\u9e7f\u91ce\u9109","postcode":"955","location":"22.95125666,121.1560376"},{"town":"\u95dc\u5c71\u93ae","postcode":"956","location":"23.03780684,121.1766197"},{"town":"\u6d77\u7aef\u9109","postcode":"957","location":"23.11478528,121.0175672"},{"town":"\u6c60\u4e0a\u9109","postcode":"958","location":"23.09248714,121.2184501"},{"town":"\u6771\u6cb3\u9109","postcode":"959","location":"22.98006921,121.2517917"},{"town":"\u6210\u529f\u93ae","postcode":"961","location":"23.12663716,121.3537983"},{"town":"\u9577\u6ff1\u9109","postcode":"962","location":"23.33476899,121.4261725"},{"town":"\u592a\u9ebb\u91cc\u9109","postcode":"963","location":"22.59098082,120.9797643"},{"town":"\u91d1\u5cf0\u9109","postcode":"964","location":"22.58161687,120.8570384"},{"town":"\u5927\u6b66\u9109","postcode":"965","location":"22.38359522,120.8991703"},{"town":"\u9054\u4ec1\u9109","postcode":"966","location":"22.38430718,120.8355239"}],"\u82b1\u84ee\u7e23":[{"town":"\u82b1\u84ee\u5e02","postcode":"970","location":"23.99700271,121.6071463"},{"town":"\u65b0\u57ce\u9109","postcode":"971","location":"24.05579952,121.6137969"},{"town":"\u79c0\u6797\u9109","postcode":"972","location":"24.12374414,121.4807194"},{"town":"\u5409\u5b89\u9109","postcode":"973","location":"23.95546585,121.5646738"},{"town":"\u58fd\u8c50\u9109","postcode":"974","location":"23.84459714,121.5341569"},{"town":"\u9cf3\u6797\u93ae","postcode":"975","location":"23.74324462,121.4698848"},{"town":"\u5149\u5fa9\u9109","postcode":"976","location":"23.64658742,121.4351231"},{"town":"\u8c50\u6ff1\u9109","postcode":"977","location":"23.58519428,121.4942331"},{"town":"\u745e\u7a57\u9109","postcode":"978","location":"23.5156124,121.4073472"},{"town":"\u842c\u69ae\u9109","postcode":"979","location":"23.72772629,121.3189531"},{"town":"\u7389\u91cc\u93ae","postcode":"981","location":"23.37143588,121.3604476"},{"town":"\u5353\u6eaa\u9109","postcode":"982","location":"23.39062875,121.1804222"},{"town":"\u5bcc\u91cc\u9109","postcode":"983","location":"23.19672092,121.2980494"}]}